LANDSAT 9               
1 49260U 21088A   24013.77226836  .00000845  00000+0  19766-3 0  9999
2 49260  98.2074  85.8882 0001115  88.5034 271.6292 14.57110322122053
